GLOBALSTAR M001         
1 25162U 98008A   24207.44552323 -.00000070  00000+0  20431-3 0  9994
2 25162  52.0001 204.2171 0001725 281.5481 234.5929 12.38189170203231
GLOBALSTAR M004         
1 25163U 98008B   24207.74894694 -.00000054  00000+0  27561-3 0  9991
2 25163  52.0021 330.0173 0002255 283.3842 229.3960 12.63365889220523
GLOBALSTAR M002         
1 25164U 98008C   24207.83482061 -.00000065  00000+0  21623-3 0  9998
2 25164  52.0044 338.4754 0000673 248.0679 112.0070 11.61502534146146
GLOBALSTAR M003         
1 25165U 98008D   24207.90806845  .00000060  00000+0  15963-2 0  9990
2 25165  51.9922 352.1784 0007690   1.9657 168.4301 12.12021605193656
GLOBALSTAR M014         
1 25306U 98023A   24207.64479078 -.00000068  00000+0  17132-3 0  9999
2 25306  51.9830 269.0435 0001205 132.3674  36.7930 11.65469286153091
GLOBALSTAR M006         
1 25307U 98023B   24207.74453971 -.00000053  00000+0  47321-3 0  9992
2 25307  51.9959 309.0637 0003699 227.4984 290.9529 11.58163507179008
GLOBALSTAR M015         
1 25308U 98023C   24207.87307595 -.00000125  00000+0 -11657-2 0  9990
2 25308  51.9841  32.2552 0012148 213.0728 241.2373 11.48849066156579
GLOBALSTAR M008         
1 25309U 98023D   24207.69801584 -.00000091  00000+0  42900-4 0  9996
2 25309  51.9977  64.6131 0002007 192.2003 198.4645 12.36045636197477
